*******************************************************************************
Ephemeris / PORT_LOGIN Sun Apr 13 02:38:15 2014 Pasadena, USA    / Horizons
*******************************************************************************
Target body name: 2061 Anza (1960 UA)             {source: JPL#48}
Center body name: Earth (399)                     {source: DE-0431LE-0431}
Center-site name: GEOCENTRIC
*******************************************************************************
Start time      : A.D. 2014-Apr-13 00:00:00.0000 UT
Stop  time      : A.D. 2014-Apr-14 00:00:00.0000 UT
Step-size       : 1 minutes
*******************************************************************************
Target pole/equ : No model available
Target radii    : 1.3 km
Center geodetic : 0.00000000,0.00000000,0.0000000 {E-lon(deg),Lat(deg),Alt(km)}
Center cylindric: 0.00000000,0.00000000,0.0000000 {E-lon(deg),Dxy(km),Dz(km)}
Center pole/equ : High-precision EOP model        {East-longitude +}
Center radii    : 6378.1 x 6378.1 x 6356.8 km     {Equator, meridian, pole}
Target primary  : Sun
Vis. interferer : MOON (R_eq= 1737.400) km        {source: DE-0431LE-0431}
Rel. light bend : Sun, EARTH                      {source: DE-0431LE-0431}
Rel. lght bnd GM: 1.3271E+11, 3.9860E+05 km^3/s^2
Small-body perts: Yes                             {source: SB431-BIG16}
Atmos refraction: NO (AIRLESS)
RA format       : DEG
Time format     : BOTH
EOP file        : eop.140411.p140703
EOP coverage    : DATA-BASED 1962-JAN-20 TO 2014-APR-11. PREDICTS-> 2014-JUL-02
Units conversion: 1 au= 149597870.700 km, c= 299792.458 km/s, 1 day= 86400.0 s
Table cut-offs 1: Elevation (-90.0deg=NO ),Airmass (>38.000=NO), Daylight (NO )
Table cut-offs 2: Solar Elongation (  0.0,180.0=NO ),Local Hour Angle( 0.0=NO )
Table format    : Comma Separated Values (spreadsheet)
*******************************************************************************
Initial FK5/J2000.0 heliocentric ecliptic osculating elements (au, days, deg.):
  EPOCH=  2452423.5 ! 2002-May-29.00 (CT)          Residual RMS= .50883
   EC= .5367465539899507   QR= 1.049506241786579   TP= 2452149.7397747175
   OM= 207.7489364099488   W=  156.4513271184487   IN= 3.766063009050306
Asteroid physical parameters (km, seconds, rotational period in hours):
   GM= n.a.                RAD= 1.3                ROTPER= 11.5
   H= 16.56                G= .150                 B-V= .825
                           ALBEDO= n.a.            STYP= TCG:
*************************************************************************************************
 Date__(UT)__HR:MN:SS, Date_________JDUT, , ,R.A._(ICRF/J2000.0), DEC_(ICRF/J2000.0),   1-way_LT,
*************************************************************************************************
$$SOE
 2014-Apr-13 20:04:00, 2456761.336111111, , ,215.4523405,-13.5583361,  17.109509,
 2014-Apr-13 20:05:00, 2456761.336805556, , ,215.4521718,-13.5582694,  17.109466,
 2014-Apr-13 20:06:00, 2456761.337500000, , ,215.4520031,-13.5582027,  17.109424,
 2014-Apr-13 20:07:00, 2456761.338194444, , ,215.4518344,-13.5581359,  17.109381,
 2014-Apr-13 20:08:00, 2456761.338888889, , ,215.4516657,-13.5580692,  17.109338,
 2014-Apr-13 20:09:00, 2456761.339583333, , ,215.4514970,-13.5580025,  17.109296,
 2014-Apr-13 20:10:00, 2456761.340277778, , ,215.4513283,-13.5579357,  17.109253,
 2014-Apr-13 20:11:00, 2456761.340972222, , ,215.4511597,-13.5578690,  17.109211,
 2014-Apr-13 20:12:00, 2456761.341666667, , ,215.4509910,-13.5578023,  17.109168,
 2014-Apr-13 20:13:00, 2456761.342361111, , ,215.4508223,-13.5577355,  17.109126,
 2014-Apr-13 20:14:00, 2456761.343055556, , ,215.4506535,-13.5576688,  17.109083,
 2014-Apr-13 20:15:00, 2456761.343750000, , ,215.4504848,-13.5576021,  17.109041,
 2014-Apr-13 20:16:00, 2456761.344444444, , ,215.4503161,-13.5575353,  17.108998,
 2014-Apr-13 20:17:00, 2456761.345138889, , ,215.4501474,-13.5574686,  17.108956,
 2014-Apr-13 20:18:00, 2456761.345833333, , ,215.4499787,-13.5574018,  17.108913,
 2014-Apr-13 20:19:00, 2456761.346527778, , ,215.4498100,-13.5573351,  17.108871,
 2014-Apr-13 20:20:00, 2456761.347222222, , ,215.4496413,-13.5572684,  17.108828,
 2014-Apr-13 20:21:00, 2456761.347916667, , ,215.4494726,-13.5572016,  17.108786,
 2014-Apr-13 20:22:00, 2456761.348611111, , ,215.4493039,-13.5571349,  17.108743,
 2014-Apr-13 20:23:00, 2456761.349305556, , ,215.4491352,-13.5570681,  17.108701,
 2014-Apr-13 20:24:00, 2456761.350000000, , ,215.4489664,-13.5570014,  17.108658,
 2014-Apr-13 20:25:00, 2456761.350694444, , ,215.4487977,-13.5569346,  17.108616,
 2014-Apr-13 20:26:00, 2456761.351388889, , ,215.4486290,-13.5568679,  17.108573,
 2014-Apr-13 20:27:00, 2456761.352083333, , ,215.4484603,-13.5568011,  17.108531,
 2014-Apr-13 20:28:00, 2456761.352777778, , ,215.4482915,-13.5567344,  17.108488,
 2014-Apr-13 20:29:00, 2456761.353472222, , ,215.4481228,-13.5566677,  17.108446,
 2014-Apr-13 20:30:00, 2456761.354166667, , ,215.4479541,-13.5566009,  17.108403,
 2014-Apr-13 20:31:00, 2456761.354861111, , ,215.4477854,-13.5565342,  17.108361,
 2014-Apr-13 20:32:00, 2456761.355555556, , ,215.4476166,-13.5564674,  17.108318,
 2014-Apr-13 20:33:00, 2456761.356250000, , ,215.4474479,-13.5564007,  17.108276,
 2014-Apr-13 20:34:00, 2456761.356944445, , ,215.4472792,-13.5563339,  17.108233,
 2014-Apr-13 20:35:00, 2456761.357638889, , ,215.4471104,-13.5562672,  17.108191,
 2014-Apr-13 20:36:00, 2456761.358333333, , ,215.4469417,-13.5562004,  17.108149,
 2014-Apr-13 20:37:00, 2456761.359027778, , ,215.4467729,-13.5561336,  17.108106,
 2014-Apr-13 20:38:00, 2456761.359722222, , ,215.4466042,-13.5560669,  17.108064,
 2014-Apr-13 20:39:00, 2456761.360416667, , ,215.4464355,-13.5560001,  17.108021,
 2014-Apr-13 20:40:00, 2456761.361111111, , ,215.4462667,-13.5559334,  17.107979,
 2014-Apr-13 20:41:00, 2456761.361805555, , ,215.4460980,-13.5558666,  17.107936,
 2014-Apr-13 20:42:00, 2456761.362500000, , ,215.4459292,-13.5557999,  17.107894,
 2014-Apr-13 20:43:00, 2456761.363194444, , ,215.4457605,-13.5557331,  17.107851,
 2014-Apr-13 20:44:00, 2456761.363888889, , ,215.4455917,-13.5556664,  17.107809,
 2014-Apr-13 20:45:00, 2456761.364583333, , ,215.4454230,-13.5555996,  17.107766,
 2014-Apr-13 20:46:00, 2456761.365277778, , ,215.4452542,-13.5555328,  17.107724,
 2014-Apr-13 20:47:00, 2456761.365972222, , ,215.4450855,-13.5554661,  17.107681,
 2014-Apr-13 20:48:00, 2456761.366666667, , ,215.4449167,-13.5553993,  17.107639,
 2014-Apr-13 20:49:00, 2456761.367361111, , ,215.4447479,-13.5553326,  17.107596,
 2014-Apr-13 20:50:00, 2456761.368055556, , ,215.4445792,-13.5552658,  17.107554,
 2014-Apr-13 20:51:00, 2456761.368750000, , ,215.4444104,-13.5551990,  17.107511,
 2014-Apr-13 20:52:00, 2456761.369444444, , ,215.4442416,-13.5551323,  17.107469,
 2014-Apr-13 20:53:00, 2456761.370138889, , ,215.4440729,-13.5550655,  17.107426,
 2014-Apr-13 20:54:00, 2456761.370833333, , ,215.4439041,-13.5549987,  17.107384,
 2014-Apr-13 20:55:00, 2456761.371527778, , ,215.4437353,-13.5549320,  17.107342,
 2014-Apr-13 20:56:00, 2456761.372222222, , ,215.4435666,-13.5548652,  17.107299,
 2014-Apr-13 20:57:00, 2456761.372916667, , ,215.4433978,-13.5547984,  17.107257,
 2014-Apr-13 20:58:00, 2456761.373611111, , ,215.4432290,-13.5547317,  17.107214,
 2014-Apr-13 20:59:00, 2456761.374305556, , ,215.4430602,-13.5546649,  17.107172,
 2014-Apr-13 21:00:00, 2456761.375000000, , ,215.4428915,-13.5545981,  17.107129,
 2014-Apr-13 21:01:00, 2456761.375694444, , ,215.4427227,-13.5545314,  17.107087,
 2014-Apr-13 21:02:00, 2456761.376388889, , ,215.4425539,-13.5544646,  17.107044,
 2014-Apr-13 21:03:00, 2456761.377083333, , ,215.4423851,-13.5543978,  17.107002,
 2014-Apr-13 21:04:00, 2456761.377777778, , ,215.4422163,-13.5543310,  17.106959,
 2014-Apr-13 21:05:00, 2456761.378472222, , ,215.4420476,-13.5542643,  17.106917,
 2014-Apr-13 21:06:00, 2456761.379166667, , ,215.4418788,-13.5541975,  17.106875,
 2014-Apr-13 21:07:00, 2456761.379861111, , ,215.4417100,-13.5541307,  17.106832,
 2014-Apr-13 21:08:00, 2456761.380555556, , ,215.4415412,-13.5540639,  17.106790,
 2014-Apr-13 21:09:00, 2456761.381250000, , ,215.4413724,-13.5539972,  17.106747,
 2014-Apr-13 21:10:00, 2456761.381944444, , ,215.4412036,-13.5539304,  17.106705,
 2014-Apr-13 21:11:00, 2456761.382638889, , ,215.4410348,-13.5538636,  17.106662,
 2014-Apr-13 21:12:00, 2456761.383333333, , ,215.4408660,-13.5537968,  17.106620,
 2014-Apr-13 21:13:00, 2456761.384027778, , ,215.4406972,-13.5537301,  17.106577,
 2014-Apr-13 21:14:00, 2456761.384722222, , ,215.4405284,-13.5536633,  17.106535,
 2014-Apr-13 21:15:00, 2456761.385416667, , ,215.4403596,-13.5535965,  17.106493,
 2014-Apr-13 21:16:00, 2456761.386111111, , ,215.4401908,-13.5535297,  17.106450,
 2014-Apr-13 21:17:00, 2456761.386805556, , ,215.4400220,-13.5534629,  17.106408,
 2014-Apr-13 21:18:00, 2456761.387500000, , ,215.4398532,-13.5533962,  17.106365,
 2014-Apr-13 21:19:00, 2456761.388194445, , ,215.4396844,-13.5533294,  17.106323,
 2014-Apr-13 21:20:00, 2456761.388888889, , ,215.4395156,-13.5532626,  17.106280,
 2014-Apr-13 21:21:00, 2456761.389583333, , ,215.4393468,-13.5531958,  17.106238,
 2014-Apr-13 21:22:00, 2456761.390277778, , ,215.4391779,-13.5531290,  17.106196,
 2014-Apr-13 21:23:00, 2456761.390972222, , ,215.4390091,-13.5530622,  17.106153,
 2014-Apr-13 21:24:00, 2456761.391666667, , ,215.4388403,-13.5529954,  17.106111,
 2014-Apr-13 21:25:00, 2456761.392361111, , ,215.4386715,-13.5529287,  17.106068,
 2014-Apr-13 21:26:00, 2456761.393055555, , ,215.4385027,-13.5528619,  17.106026,
 2014-Apr-13 21:27:00, 2456761.393750000, , ,215.4383339,-13.5527951,  17.105983,
 2014-Apr-13 21:28:00, 2456761.394444444, , ,215.4381650,-13.5527283,  17.105941,
 2014-Apr-13 21:29:00, 2456761.395138889, , ,215.4379962,-13.5526615,  17.105899,
$$EOE
*************************************************************************************************